NORAD_CAT_ID,OBJECT_NAME,OBJECT_TYPE,EPOCH,MEAN_MOTION,ECCENTRICITY,INCLINATION,RA_OF_ASC_NODE,ARG_OF_PERICENTER,MEAN_ANOMALY,BSTAR,MEAN_MOTION_DOT,MEAN_MOTION_DDOT,TLE_LINE0,TLE_LINE1,TLE_LINE2,SEMIMAJOR_AXIS,PERIOD,APOGEE,PERIGEE,DECAYED
53183.0,STARLINK-4268,PAYLOAD,2023-08-02 18:42:38,15.08837236,0.0001266,53.2174,73.3456,96.3663,263.7473,4.4223e-05,4.16e-06,0.0,0 STARLINK-4268,1 53183U 22083BD  23214.77961239  .00000416  00000-0  44223-4 0  9991,2 53183  53.2174  73.3456 0001266  96.3663 263.7473 15.08837236 59076,6917.889,95.438,540.63,538.878,0.0
53183.0,STARLINK-4268,PAYLOAD,2023-08-02 23:28:47,15.08845458,0.0001248,53.2177,72.4538,93.3744,266.7391,6.6846e-05,7.76e-06,0.0,0 STARLINK-4268,1 53183U 22083BD  23214.97832712  .00000776  00000-0  66846-4 0  9990,2 53183  53.2177  72.4538 0001248  93.3744 266.7391 15.08845458 59108,6917.864,95.437,540.592,538.865,0.0
53183.0,STARLINK-4268,PAYLOAD,2023-08-03 18:33:25,15.08833913,0.0001257,53.218,68.884,97.8296,262.2839,2.9562e-05,1.83e-06,0.0,0 STARLINK-4268,1 53183U 22083BD  23215.77321753  .00000183  00000-0  29562-4 0  9993,2 53183  53.2180  68.8840 0001257  97.8296 262.2839 15.08833913 59222,6917.899,95.438,540.634,538.894,0.0
53183.0,STARLINK-4268,PAYLOAD,2023-08-04 21:34:58,15.0884718,0.0001194,53.2179,63.8283,89.5952,270.5177,4.362e-05,4.07e-06,0.0,0 STARLINK-4268,1 53183U 22083BD  23216.89929079  .00000407  00000-0  43620-4 0  9992,2 53183  53.2179  63.8283 0001194  89.5952 270.5177 15.08847180 59399,6917.858,95.437,540.549,538.897,0.0
53183.0,STARLINK-4268,PAYLOAD,2023-08-06 06:58:04,15.08837962,0.0001192,53.2185,57.5801,107.6242,252.488,3.5487e-05,2.77e-06,0.0,0 STARLINK-4268,1 53183U 22083BD  23218.29033211  .00000277  00000-0  35487-4 0  9999,2 53183  53.2185  57.5801 0001192 107.6242 252.4880 15.08837962 59605,6917.887,95.438,540.576,538.927,0.0
53183.0,STARLINK-4268,PAYLOAD,2023-08-06 19:41:11,15.08830125,0.0001376,53.2174,55.2054,111.5071,248.6068,-0.0001267,-2.303e-05,0.0,0 STARLINK-4268,1 53183U 22083BD  23218.82026625 -.00002303  00000-0 -12670-3 0  9991,2 53183  53.2174  55.2054 0001376 111.5071 248.6068 15.08830125 59683,6917.911,95.438,540.727,538.824,0.0
53183.0,STARLINK-4268,PAYLOAD,2023-08-07 19:31:56,15.08850072,9.97e-05,53.2177,50.7463,101.8117,258.2987,-3.4779e-05,-8.41e-06,0.0,0 STARLINK-4268,1 53183U 22083BD  23219.81385313 -.00000841  00000-0 -34779-4 0  9993,2 53183  53.2177  50.7463 0000997 101.8117 258.2987 15.08850072 59838,6917.85,95.437,540.404,539.025,0.0
53183.0,STARLINK-4268,PAYLOAD,2023-08-08 20:58:07,15.08839147,8.94e-05,53.2175,45.988,103.3543,256.7549,0.00019637,2.839e-05,0.0,0 STARLINK-4268,1 53183U 22083BD  23220.87369631  .00002839  00000-0  19637-3 0  9998,2 53183  53.2175  45.9880 0000894 103.3543 256.7549 15.08839147 59995,6917.883,95.438,540.366,539.13,0.0
53183.0,STARLINK-4268,PAYLOAD,2023-08-09 04:55:03,15.08835963,8.9e-05,53.2177,44.5012,103.1097,256.9994,0.00012878,1.762e-05,0.0,0 STARLINK-4268,1 53183U 22083BD  23221.20490091  .00001762  00000-0  12878-3 0  9995,2 53183  53.2177  44.5012 0000890 103.1097 256.9994 15.08835963 60043,6917.893,95.438,540.373,539.142,0.0
53183.0,STARLINK-4268,PAYLOAD,2023-08-10 20:39:41,15.08847795,8.61e-05,53.2177,37.067,103.5217,256.5871,0.00016392,2.323e-05,0.0,0 STARLINK-4268,1 53183U 22083BD  23222.86089218  .00002323  00000-0  16392-3 0  9992,2 53183  53.2177  37.0670 0000861 103.5217 256.5871 15.08847795 60299,6917.857,95.437,540.317,539.126,0.0
53183.0,STARLINK-4268,PAYLOAD,2023-08-11 17:19:42,15.08841457,7.66e-05,53.2178,33.2016,88.8304,271.2776,6.8772e-05,8.07e-06,0.0,0 STARLINK-4268,1 53183U 22083BD  23223.72201982  .00000807  00000-0  68772-4 0  9997,2 53183  53.2178  33.2016 0000766  88.8304 271.2776 15.08841457 60420,6917.876,95.437,540.271,539.211,0.0
53183.0,STARLINK-4268,PAYLOAD,2023-08-12 10:48:57,15.08837329,0.0001073,53.2174,29.9297,83.9894,276.1221,-2.5292e-05,-6.9e-06,0.0,0 STARLINK-4268,1 53183U 22083BD  23224.45066764 -.00000690  00000-0 -25292-4 0  9997,2 53183  53.2174  29.9297 0001073  83.9894 276.1221 15.08837329 60535,6917.889,95.438,540.496,539.011,0.0
53183.0,STARLINK-4268,PAYLOAD,2023-08-12 18:45:52,15.08843599,0.0001013,53.2167,28.445,68.8515,291.2585,-3.4544e-06,-3.43e-06,0.0,0 STARLINK-4268,1 53183U 22083BD  23224.78186270 -.00000343  00000-0 -34544-5 0  9994,2 53183  53.2167  28.4450 0001013  68.8515 291.2585 15.08843599 60580,6917.869,95.437,540.435,539.034,0.0
53183.0,STARLINK-4268,PAYLOAD,2023-08-14 10:30:31,15.08840102,8.54e-05,53.2157,21.0102,73.9539,286.1547,0.00016729,2.376e-05,0.0,0 STARLINK-4268,1 53183U 22083BD  23226.43786297  .00002376  00000-0  16729-3 0  9992,2 53183  53.2157  21.0102 0000854  73.9539 286.1547 15.08840102 60833,6917.88,95.438,540.336,539.154,0.0
53183.0,STARLINK-4268,PAYLOAD,2023-08-15 16:42:50,15.08840556,9.94e-05,53.2179,15.3595,90.8307,269.2799,0.0001823,2.615e-05,0.0,0 STARLINK-4268,1 53183U 22083BD  23227.69642070  .00002615  00000-0  18230-3 0  9996,2 53183  53.2179  15.3595 0000994  90.8307 269.2799 15.08840556 61021,6917.879,95.438,540.431,539.056,0.0
53183.0,STARLINK-4268,PAYLOAD,2023-08-17 02:05:56,15.08852448,5.79e-05,53.2165,9.1162,85.7779,274.3279,-0.00015669,-2.781e-05,0.0,0 STARLINK-4268,1 53183U 22083BD  23229.08745780 -.00002781  00000-0 -15669-3 0  9992,2 53183  53.2165   9.1162 0000579  85.7779 274.3279 15.08852448 61238,6917.842,95.437,540.108,539.307,0.0
53183.0,STARLINK-4268,PAYLOAD,2023-08-17 10:02:52,15.08836274,6.68e-05,53.2161,7.629,87.9255,272.1813,3.62e-05,2.89e-06,0.0,0 STARLINK-4268,1 53183U 22083BD  23229.41866629  .00000289  00000-0  36200-4 0  9999,2 53183  53.2161   7.6290 0000668  87.9255 272.1813 15.08836274 61285,6917.892,95.438,540.219,539.295,0.0
53183.0,STARLINK-4268,PAYLOAD,2023-08-17 16:24:24,15.08844194,7.31e-05,53.2223,6.4421,106.905,253.2023,9.2441e-05,1.184e-05,0.0,0 STARLINK-4268,1 53183U 22083BD  23229.68362032  .00001184  00000-0  92441-4 0  9991,2 53183  53.2223   6.4421 0000731 106.9050 253.2023 15.08844194 61321,6917.868,95.437,540.238,539.227,0.0
53183.0,STARLINK-4268,PAYLOAD,2023-08-18 09:53:40,15.08824945,0.0003188,53.2159,3.1683,99.3978,260.7374,1.8642e-05,8e-08,0.0,0 STARLINK-4268,1 53183U 22083BD  23230.41227757  .00000008  00000-0  18642-4 0  9993,2 53183  53.2159   3.1683 0003188  99.3978 260.7374 15.08824945 61432,6917.926,95.439,541.997,537.586,0.0
53183.0,STARLINK-4268,PAYLOAD,2023-08-19 01:47:31,15.08835856,8.57e-05,53.2169,0.1945,85.648,274.461,9.7833e-05,1.269e-05,0.0,0 STARLINK-4268,1 53183U 22083BD  23231.07466809  .00001269  00000-0  97833-4 0  9998,2 53183  53.2169   0.1945 0000857  85.6480 274.4610 15.08835856 61536,6917.893,95.438,540.351,539.165,0.0
53183.0,STARLINK-4268,PAYLOAD,2023-08-20 17:32:09,15.08845398,0.0001759,53.2182,352.7611,99.6902,260.4289,0.00015329,2.153e-05,0.0,0 STARLINK-4268,1 53183U 22083BD  23232.73066466  .00002153  00000-0  15329-3 0  9999,2 53183  53.2182 352.7611 0001759  99.6902 260.4289 15.08845398 61789,6917.864,95.437,540.946,538.512,0.0
53183.0,STARLINK-4268,PAYLOAD,2023-08-21 01:29:05,15.0883891,8.23e-05,53.2182,351.2739,82.3884,277.7201,8.1397e-05,1.008e-05,0.0,0 STARLINK-4268,1 53183U 22083BD  23233.06186933  .00001008  00000-0  81397-4 0  9995,2 53183  53.2182 351.2739 0000823  82.3884 277.7201 15.08838910 61836,6917.884,95.438,540.318,539.179,0.0
53183.0,STARLINK-4268,PAYLOAD,2023-08-22 07:41:25,15.08842156,8.98e-05,53.2184,345.6265,69.5331,290.5757,2.5766e-05,1.22e-06,0.0,0 STARLINK-4268,1 53183U 22083BD  23234.32043221  .00000122  00000-0  25766-4 0  9991,2 53183  53.2184 345.6265 0000898  69.5331 290.5757 15.08842156 62023,6917.874,95.437,540.36,539.118,0.0
53183.0,STARLINK-4268,PAYLOAD,2023-08-23 12:18:21,15.08843737,9.68e-05,53.2189,340.2724,80.7826,279.3276,0.00011081,1.476e-05,0.0,0 STARLINK-4268,1 53183U 22083BD  23235.51274893  .00001476  00000-0  11081-3 0  9991,2 53183  53.2189 340.2724 0000968  80.7826 279.3276 15.08843737 62208,6917.869,95.437,540.404,539.064,0.0
53183.0,STARLINK-4268,PAYLOAD,2023-08-24 15:19:54,15.08845968,9.83e-05,53.2193,335.2167,87.3796,272.7309,0.00011999,1.623e-05,0.0,0 STARLINK-4268,1 53183U 22083BD  23236.63882774  .00001623  00000-0  11999-3 0  9990,2 53183  53.2193 335.2167 0000983  87.3796 272.7309 15.08845968 61733,6917.862,95.437,540.407,539.047,0.0
53183.0,STARLINK-4268,PAYLOAD,2023-08-25 10:24:32,15.08840305,0.0001081,53.2195,331.6477,89.7449,270.3667,1.8898e-05,1.3e-07,0.0,0 STARLINK-4268,1 53183U 22083BD  23237.43371380  .00000013  00000-0  18898-4 0  9993,2 53183  53.2195 331.6477 0001081  89.7449 270.3667 15.08840305 62495,6917.879,95.438,540.492,538.997,0.0
53183.0,STARLINK-4268,PAYLOAD,2023-08-25 11:59:55,15.08840395,0.0001053,53.2192,331.3534,82.5811,277.53,3.7011e-05,3.01e-06,0.0,0 STARLINK-4268,1 53183U 22083BD  23237.49995363  .00000301  00000-0  37011-4 0  9990,2 53183  53.2192 331.3534 0001053  82.5811 277.5300 15.08840395 61868,6917.879,95.438,540.473,539.016,0.0
53183.0,STARLINK-4268,PAYLOAD,2023-08-25 15:10:42,15.08843646,0.0001049,53.2192,330.7576,87.5025,272.6087,5.9989e-05,6.67e-06,0.0,0 STARLINK-4268,1 53183U 22083BD  23237.63243066  .00000667  00000-0  59989-4 0  9995,2 53183  53.2192 330.7576 0001049  87.5025 272.6087 15.08843646 61886,6917.869,95.437,540.46,539.009,0.0
53183.0,STARLINK-4268,PAYLOAD,2023-08-26 11:50:43,15.08839795,0.0001138,53.2191,326.8914,96.7428,263.3694,3.6207e-05,2.88e-06,0.0,0 STARLINK-4268,1 53183U 22083BD  23238.49355545  .00000288  00000-0  36207-4 0  9993,2 53183  53.2191 326.8914 0001138  96.7428 263.3694 15.08839795 62012,6917.881,95.438,540.533,538.959,0.0
53183.0,STARLINK-4268,PAYLOAD,2023-08-26 15:01:29,15.08842142,0.0001368,53.2185,326.2949,118.6445,241.4685,4.7891e-05,4.74e-06,0.0,0 STARLINK-4268,1 53183U 22083BD  23238.62603311  .00000474  00000-0  47891-4 0  9993,2 53183  53.2185 326.2949 0001368 118.6445 241.4685 15.08842142 62674,6917.874,95.437,540.685,538.792,0.0
